NORAD_CAT_ID,OBJECT_NAME,OBJECT_TYPE,EPOCH,MEAN_MOTION,ECCENTRICITY,INCLINATION,RA_OF_ASC_NODE,ARG_OF_PERICENTER,MEAN_ANOMALY,BSTAR,MEAN_MOTION_DOT,MEAN_MOTION_DDOT,TLE_LINE0,TLE_LINE1,TLE_LINE2,SEMIMAJOR_AXIS,PERIOD,APOGEE,PERIGEE,DECAYED
51742.0,STARLINK-3521,PAYLOAD,2023-02-01 07:38:44,15.08856598,0.0001382,53.216,2.5345,104.3657,255.7489,0.00043781,6.69e-05,0.0,0 STARLINK-3521,1 51742U 22016AE  23032.31857634  .00006690  00000-0  43781-3 0  9994,2 51742  53.2160   2.5345 0001382 104.3657 255.7489 15.08856598 52616,6917.83,95.437,540.651,538.739,0.0
51742.0,STARLINK-3521,PAYLOAD,2023-02-02 02:43:23,15.08839484,0.00017,53.2164,358.9645,113.2397,246.8775,7.4205e-05,8.93e-06,0.0,0 STARLINK-3521,1 51742U 22016AE  23033.11346357  .00000893  00000-0  74205-4 0  9993,2 51742  53.2164 358.9645 0001700 113.2397 246.8775 15.08839484 53867,6917.882,95.438,540.923,538.571,0.0
51742.0,STARLINK-3521,PAYLOAD,2023-02-02 07:29:32,15.08841129,0.0001593,53.2165,358.0729,109.9841,250.1323,0.00015353,2.156e-05,0.0,0 STARLINK-3521,1 51742U 22016AE  23033.31218428  .00002156  00000-0  15353-3 0  9994,2 51742  53.2165 358.0729 0001593 109.9841 250.1323 15.08841129 52762,6917.877,95.437,540.844,538.64,0.0
51742.0,STARLINK-3521,PAYLOAD,2023-02-03 07:20:19,15.08863,0.0001374,53.2165,353.6153,89.8566,270.2583,0.00087719,0.00013709,0.0,0 STARLINK-3521,1 51742U 22016AE  23034.30577966  .00013709  00000-0  87719-3 0  9990,2 51742  53.2165 353.6153 0001374  89.8566 270.2583 15.08863000 54047,6917.81,95.436,540.626,538.725,0.0
51742.0,STARLINK-3521,PAYLOAD,2023-02-04 05:35:43,15.08855147,0.0001325,53.2164,349.452,101.0592,259.0549,0.00073869,0.00011493,0.0,0 STARLINK-3521,1 51742U 22016AE  23035.23314066  .00011493  00000-0  73869-3 0  9992,2 51742  53.2164 349.4520 0001325 101.0592 259.0549 15.08855147 54184,6917.834,95.437,540.616,538.782,0.0
51742.0,STARLINK-3521,PAYLOAD,2023-02-04 19:54:12,15.08841211,0.0001871,53.2167,346.7761,97.1477,262.9728,0.00087426,0.00013654,0.0,0 STARLINK-3521,1 51742U 22016AE  23035.82930644  .00013654  00000-0  87426-3 0  9998,2 51742  53.2167 346.7761 0001871  97.1477 262.9728 15.08841211 54276,6917.877,95.437,541.036,538.447,0.0
51742.0,STARLINK-3521,PAYLOAD,2023-02-05 05:26:31,15.08834543,0.000134,53.2168,344.9915,96.5636,263.5509,0.00034587,5.22e-05,0.0,0 STARLINK-3521,1 51742U 22016AE  23036.22674970  .00005220  00000-0  34587-3 0  9990,2 51742  53.2168 344.9915 0001340  96.5636 263.5509 15.08834543 54330,6917.897,95.438,540.689,538.835,0.0
51742.0,STARLINK-3521,PAYLOAD,2023-02-05 07:01:54,15.08834869,0.0001323,53.2168,344.6942,96.4748,263.6395,0.00036887,5.587e-05,0.0,0 STARLINK-3521,1 51742U 22016AE  23036.29299011  .00005587  00000-0  36887-3 0  9997,2 51742  53.2168 344.6942 0001323  96.4748 263.6395 15.08834869 53212,6917.896,95.438,540.676,538.846,0.0
51742.0,STARLINK-3521,PAYLOAD,2023-02-06 05:17:18,15.08855781,0.0001249,53.216,340.5311,90.5354,269.5781,0.00075833,0.00011807,0.0,0 STARLINK-3521,1 51742U 22016AE  23037.22034774  .00011807  00000-0  75833-3 0  9990,2 51742  53.2160 340.5311 0001249  90.5354 269.5781 15.08855781 53359,6917.832,95.437,540.561,538.833,0.0
51742.0,STARLINK-3521,PAYLOAD,2023-02-06 19:35:46,15.08850122,0.0001275,53.2163,337.8545,95.9456,264.1681,0.00048051,7.37e-05,0.0,0 STARLINK-3521,1 51742U 22016AE  23037.81650733  .00007370  00000-0  48051-3 0  9996,2 51742  53.2163 337.8545 0001275  95.9456 264.1681 15.08850122 54570,6917.849,95.437,540.596,538.832,0.0
51742.0,STARLINK-3521,PAYLOAD,2023-02-07 05:08:04,15.08867278,0.000142,53.2165,336.0706,78.4844,281.6308,0.0012119,0.00019066,0.0,0 STARLINK-3521,1 51742U 22016AE  23038.21394457  .00019066  00000-0  12119-2 0  9999,2 51742  53.2165 336.0706 0001420  78.4844 281.6308 15.08867278 53503,6917.797,95.436,540.644,538.68,0.0
51742.0,STARLINK-3521,PAYLOAD,2023-02-08 04:58:51,15.0886686,0.0001255,53.2163,331.6101,94.0827,266.0309,0.0011456,0.00018005,0.0,0 STARLINK-3521,1 51742U 22016AE  23039.20754051  .00018005  00000-0  11456-2 0  9994,2 51742  53.2163 331.6101 0001255  94.0827 266.0309 15.08866860 54787,6917.798,95.436,540.531,538.795,0.0
51742.0,STARLINK-3521,PAYLOAD,2023-02-08 22:28:06,15.08842061,0.0001164,53.2174,328.3395,105.7975,254.3146,0.0010985,0.00017239,0.0,0 STARLINK-3521,1 51742U 22016AE  23039.93618602  .00017239  00000-0  10985-2 0  9999,2 51742  53.2174 328.3395 0001164 105.7975 254.3146 15.08842061 53763,6917.874,95.437,540.544,538.934,0.0
51742.0,STARLINK-3521,PAYLOAD,2023-02-09 04:49:38,15.08863482,9.89e-05,53.2174,327.1504,79.4989,280.6114,0.0020097,0.00031862,0.0,0 STARLINK-3521,1 51742U 22016AE  23040.20114530  .00031862  00000-0  20097-2 0  9995,2 51742  53.2174 327.1504 0000989  79.4989 280.6114 15.08863482 54935,6917.809,95.436,540.358,538.989,0.0
51742.0,STARLINK-3521,PAYLOAD,2023-02-10 01:29:40,15.08855627,9.61e-05,53.2169,323.286,42.377,317.7297,0.0021012,0.00033325,0.0,0 STARLINK-3521,1 51742U 22016AE  23041.06227169  .00033325  00000-0  21012-2 0  9997,2 51742  53.2169 323.2860 0000961  42.3770 317.7297 15.08855627 55069,6917.833,95.437,540.362,539.033,0.0
51742.0,STARLINK-3521,PAYLOAD,2023-02-10 03:05:03,15.08863852,0.0001147,53.217,322.9889,56.3949,303.7153,0.0023522,0.0003737,0.0,0 STARLINK-3521,1 51742U 22016AE  23041.12851062  .00037370  00000-0  23522-2 0  9991,2 51742  53.2170 322.9889 0001147  56.3949 303.7153 15.08863852 53948,6917.807,95.436,540.466,538.879,0.0
51742.0,STARLINK-3521,PAYLOAD,2023-02-10 04:40:26,15.08872823,0.0001144,53.2168,322.6899,54.3904,305.7195,0.0025782,0.0004102,0.0,0 STARLINK-3521,1 51742U 22016AE  23041.19474881  .00041020  00000-0  25782-2 0  9995,2 51742  53.2168 322.6899 0001144  54.3904 305.7195 15.08872823 55082,6917.78,95.435,540.436,538.854,0.0
51742.0,STARLINK-3521,PAYLOAD,2023-02-11 01:20:26,15.08869193,8.72e-05,53.2167,318.823,47.4195,312.6871,0.0015371,0.00024279,0.0,0 STARLINK-3521,1 51742U 22016AE  23042.05586365  .00024279  00000-0  15371-2 0  9992,2 51742  53.2167 318.8230 0000872  47.4195 312.6871 15.08869193 55218,6917.791,95.436,540.259,539.053,0.0
51742.0,STARLINK-3521,PAYLOAD,2023-02-11 18:49:42,15.08820147,7.7e-05,53.2163,315.5534,352.8617,7.2364,0.00082664,0.00012885,0.0,0 STARLINK-3521,1 51742U 22016AE  23042.78451679  .00012885  00000-0  82664-3 0  9991,2 51742  53.2163 315.5534 0000770 352.8617   7.2364 15.08820147 55326,6917.941,95.439,540.339,539.273,0.0
51742.0,STARLINK-3521,PAYLOAD,2023-02-12 10:43:33,15.08841916,0.0001048,53.2163,312.5804,93.8111,266.3001,0.0012342,0.0001941,0.0,0 STARLINK-3521,1 51742U 22016AE  23043.44692010  .00019410  00000-0  12342-2 0  9997,2 51742  53.2163 312.5804 0001048  93.8111 266.3001 15.08841916 54291,6917.875,95.437,540.465,539.015,0.0
51742.0,STARLINK-3521,PAYLOAD,2023-02-13 04:12:46,15.08906245,0.0001105,53.2153,309.3072,91.8153,268.2966,0.0022747,0.00036166,0.0,0 STARLINK-3521,1 51742U 22016AE  23044.17554114  .00036166  00000-0  22747-2 0  9997,2 51742  53.2153 309.3072 0001105  91.8153 268.2966 15.08906245 55535,6917.678,95.433,540.307,538.779,0.0
51742.0,STARLINK-3521,PAYLOAD,2023-02-13 10:34:19,15.08867834,0.0001992,53.2154,308.1191,61.5892,298.5301,6.6595e-05,7.73e-06,0.0,0 STARLINK-3521,1 51742U 22016AE  23044.44050487  .00000773  00000-0  66595-4 0  9997,2 51742  53.2154 308.1191 0001992  61.5892 298.5301 15.08867834 55576,6917.795,95.436,541.038,538.282,0.0
51742.0,STARLINK-3521,PAYLOAD,2023-02-14 02:28:11,15.08834089,0.0001108,53.2159,305.145,53.4975,306.6119,0.0018677,0.00029557,0.0,0 STARLINK-3521,1 51742U 22016AE  23045.10291194  .00029557  00000-0  18677-2 0  9990,2 51742  53.2159 305.1450 0001108  53.4975 306.6119 15.08834089 55672,6917.898,95.438,540.53,538.997,0.0
51742.0,STARLINK-3521,PAYLOAD,2023-02-14 10:25:07,15.08827686,0.0001078,53.2153,303.6584,56.3164,303.7931,0.0022915,0.00036357,0.0,0 STARLINK-3521,1 51742U 22016AE  23045.43411748  .00036357  00000-0  22915-2 0  9991,2 51742  53.2153 303.6584 0001078  56.3164 303.7931 15.08827686 55726,6917.918,95.438,540.529,539.037,0.0
51742.0,STARLINK-3521,PAYLOAD,2023-02-15 00:43:36,15.08859425,0.0001067,53.2158,300.9818,70.5563,289.5544,0.0027978,0.00044544,0.0,0 STARLINK-3521,1 51742U 22016AE  23046.03028306  .00044544  00000-0  27978-2 0  9993,2 51742  53.2158 300.9818 0001067  70.5563 289.5544 15.08859425 55817,6917.821,95.436,540.424,538.948,0.0
51742.0,STARLINK-3521,PAYLOAD,2023-02-15 10:15:55,15.08853399,0.0001661,53.2156,299.1983,67.6201,292.4967,0.0022463,0.00035656,0.0,0 STARLINK-3521,1 51742U 22016AE  23046.42772510  .00035656  00000-0  22463-2 0  9997,2 51742  53.2156 299.1983 0001661  67.6201 292.4967 15.08853399 55875,6917.839,95.437,540.853,538.555,0.0
51742.0,STARLINK-3521,PAYLOAD,2023-02-15 21:23:37,15.08860793,0.000136,53.2177,297.1152,85.0846,275.0301,0.0013474,0.00021233,0.0,0 STARLINK-3521,1 51742U 22016AE  23046.89140092  .00021233  00000-0  13474-2 0  9990,2 51742  53.2177 297.1152 0001360  85.0846 275.0301 15.08860793 54817,6917.817,95.436,540.623,538.741,0.0
51742.0,STARLINK-3521,PAYLOAD,2023-02-15 22:59:00,15.0886599,0.0001313,53.2156,296.8184,79.4308,280.6832,0.0013158,0.0002073,0.0,0 STARLINK-3521,1 51742U 22016AE  23046.95763918  .00020730  00000-0  13158-2 0  9995,2 51742  53.2156 296.8184 0001313  79.4308 280.6832 15.08865990 55954,6917.801,95.436,540.574,538.758,0.0
51742.0,STARLINK-3521,PAYLOAD,2023-02-16 10:06:41,15.08865045,0.0001232,53.2151,294.7367,87.4594,272.6539,0.00085363,0.00013333,0.0,0 STARLINK-3521,1 51742U 22016AE  23047.42131435  .00013333  00000-0  85363-3 0  9990,2 51742  53.2151 294.7367 0001232  87.4594 272.6539 15.08865045 56020,6917.804,95.436,540.521,538.817,0.0
51742.0,STARLINK-3521,PAYLOAD,2023-02-16 22:49:47,15.08836021,0.0001301,53.2164,292.3602,76.7593,283.3544,-2.9003e-06,-3.34e-06,0.0,0 STARLINK-3521,1 51742U 22016AE  23047.95124033 -.00000334  00000-0 -29003-5 0  9994,2 51742  53.2164 292.3602 0001301  76.7593 283.3544 15.08836021 56103,6917.893,95.438,540.658,538.858,0.0
